start=new Date('2022-11-04T00:00:00.000Z').valueOf();
sats=[{"CENTER_NAME":"EARTH","MEAN_MOTION_DOT":"0.00022938","TLE_LINE1":"1 48029U 21024BE  22307.78980409  .00022938  00000-0  15529-2 0  9999","OBJECT_TYPE":"PAYLOAD","PERIAPSIS":"546.156","MEAN_ANOMALY":"279.1996","ELEMENT_SET_NO":"999","ECCENTRICITY":"0.00014300","MEAN_ELEMENT_THEORY":"SGP4","REV_AT_EPOCH":"8993","RCS_SIZE":"LARGE","REF_FRAME":"TEME","NORAD_CAT_ID":"48029","SEMIMAJOR_AXIS":"6925.281","BSTAR":"0.00155290000000","RA_OF_ASC_NODE":"56.9327","MEAN_MOTION":"15.06421915","DECAY_DATE":null,"COUNTRY_CODE":"US","TLE_LINE2":"2 48029  53.0537  56.9327 0001430  80.9154 279.1996 15.06421915 89931","OBJECT_NAME":"STARLINK-2299","ARG_OF_PERICENTER":"80.9154","EPHEMERIS_TYPE":"0","SITE":"AFETR","APOAPSIS":"548.137","OBJECT_ID":"2021-024BE","PERIOD":"95.591","FILE":"3644033","CLASSIFICATION_TYPE":"U","LAUNCH_DATE":"2021-03-24","MEAN_MOTION_DDOT":"0.0000000000000","TIME_SYSTEM":"UTC","EPOCH":"2022-11-03T18:57:19.073376","INCLINATION":"53.0537","GP_ID":"216861196"},{"EPOCH":"2022-11-03T11:38:45.719232","MEAN_MOTION_DDOT":"0.0000000000000","LAUNCH_DATE":"2021-03-24","TIME_SYSTEM":"UTC","GP_ID":"216830113","INCLINATION":"53.0569","ARG_OF_PERICENTER":"80.1243","EPHEMERIS_TYPE":"0","OBJECT_NAME":"STARLINK-2268","SITE":"AFETR","APOAPSIS":"548.154","MEAN_MOTION":"15.06400091","DECAY_DATE":null,"COUNTRY_CODE":"US","TLE_LINE2":"2 48030  53.0569  63.3159 0001359  80.1243 279.9899 15.06400091 90286","OBJECT_ID":"2021-024BF","PERIOD":"95.592","FILE":"3643813","CLASSIFICATION_TYPE":"U","REF_FRAME":"TEME","MEAN_ELEMENT_THEORY":"SGP4","ECCENTRICITY":"0.00013590","RCS_SIZE":"LARGE","REV_AT_EPOCH":"9028","NORAD_CAT_ID":"48030","SEMIMAJOR_AXIS":"6925.348","RA_OF_ASC_NODE":"63.3159","BSTAR":"0.00007248000000","MEAN_MOTION_DOT":"0.00000798","TLE_LINE1":"1 48030U 21024BF  22307.48525138  .00000798  00000-0  72480-4 0  9993","OBJECT_TYPE":"PAYLOAD","PERIAPSIS":"546.272","CENTER_NAME":"EARTH","MEAN_ANOMALY":"279.9899","ELEMENT_SET_NO":"999"},{"REV_AT_EPOCH":"9190","RCS_SIZE":"MEDIUM","MEAN_ELEMENT_THEORY":"SGP4","ECCENTRICITY":"0.00023080","REF_FRAME":"TEME","RA_OF_ASC_NODE":"308.1427","BSTAR":"0.00031372000000","NORAD_CAT_ID":"48031","SEMIMAJOR_AXIS":"6925.326","CENTER_NAME":"EARTH","PERIAPSIS":"545.593","OBJECT_TYPE":"PAYLOAD","MEAN_MOTION_DOT":"0.00004395","TLE_LINE1":"1 48031U 21024BG  22307.52349443  .00004395  00000-0  31372-3 0  9993","ELEMENT_SET_NO":"999","MEAN_ANOMALY":"317.8907","TIME_SYSTEM":"UTC","LAUNCH_DATE":"2021-03-24","MEAN_MOTION_DDOT":"0.0000000000000","EPOCH":"2022-11-03T12:33:49.918752","INCLINATION":"53.0539","GP_ID":"216859694","COUNTRY_CODE":"US","TLE_LINE2":"2 48031  53.0539 308.1427 0002308  42.2259 317.8907 15.06407242 91900","DECAY_DATE":null,"MEAN_MOTION":"15.06407242","SITE":"AFETR","APOAPSIS":"548.790","OBJECT_NAME":"STARLINK-2267","EPHEMERIS_TYPE":"0","ARG_OF_PERICENTER":"42.2259","CLASSIFICATION_TYPE":"U","FILE":"3644033","PERIOD":"95.592","OBJECT_ID":"2021-024BG"},{"MEAN_MOTION":"15.06400016","DECAY_DATE":null,"COUNTRY_CODE":"US","TLE_LINE2":"2 48033  53.0562  58.7899 0001218 100.0581 260.0545 15.06400016 90402","ARG_OF_PERICENTER":"100.0581","EPHEMERIS_TYPE":"0","OBJECT_NAME":"STARLINK-2286","SITE":"AFETR","APOAPSIS":"548.057","OBJECT_ID":"2021-024BJ","PERIOD":"95.592","FILE":"3643813","CLASSIFICATION_TYPE":"U","LAUNCH_DATE":"2021-03-24","MEAN_MOTION_DDOT":"0.0000000000000","TIME_SYSTEM":"UTC","EPOCH":"2022-11-03T09:08:09.489696","INCLINATION":"53.0562","GP_ID":"216831115","CENTER_NAME":"EARTH","TLE_LINE1":"1 48033U 21024BJ  22307.38066539  .00001255  00000-0  10311-3 0  9993","MEAN_MOTION_DOT":"0.00001255","OBJECT_TYPE":"PAYLOAD","PERIAPSIS":"546.370","MEAN_ANOMALY":"260.0545","ELEMENT_SET_NO":"999","ECCENTRICITY":"0.00012180","MEAN_ELEMENT_THEORY":"SGP4","REV_AT_EPOCH":"9040","RCS_SIZE":"LARGE","REF_FRAME":"TEME","SEMIMAJOR_AXIS":"6925.349","NORAD_CAT_ID":"48033","BSTAR":"0.00010311000000","RA_OF_ASC_NODE":"58.7899"},{"OBJECT_TYPE":"PAYLOAD","TLE_LINE1":"1 48034U 21024BK  22307.73082265  .00000989  00000-0  85259-4 0  9994","MEAN_MOTION_DOT":"0.00000989","PERIAPSIS":"546.190","CENTER_NAME":"EARTH","MEAN_ANOMALY":"259.4615","ELEMENT_SET_NO":"999","REF_FRAME":"TEME","ECCENTRICITY":"0.00014410","MEAN_ELEMENT_THEORY":"SGP4","RCS_SIZE":"LARGE","REV_AT_EPOCH":"9045","NORAD_CAT_ID":"48034","SEMIMAJOR_AXIS":"6925.323","RA_OF_ASC_NODE":"57.2136","BSTAR":"0.00008525900000","SITE":"AFETR","APOAPSIS":"548.186","ARG_OF_PERICENTER":"100.6536","OBJECT_NAME":"STARLINK-2288","EPHEMERIS_TYPE":"0","MEAN_MOTION":"15.06408201","COUNTRY_CODE":"US","TLE_LINE2":"2 48034  53.0563  57.2136 0001441 100.6536 259.4615 15.06408201 90455","DECAY_DATE":null,"FILE":"3644033","PERIOD":"95.592","OBJECT_ID":"2021-024BK","CLASSIFICATION_TYPE":"U","EPOCH":"2022-11-03T17:32:23.076960","LAUNCH_DATE":"2021-03-24","MEAN_MOTION_DDOT":"0.0000000000000","TIME_SYSTEM":"UTC","GP_ID":"216860696","INCLINATION":"53.0563"},{"MEAN_ANOMALY":"276.5401","ELEMENT_SET_NO":"999","TLE_LINE1":"1 48036U 21024BM  22307.73821202 -.00000872  00000-0 -39654-4 0  9999","MEAN_MOTION_DOT":"-0.00000872","OBJECT_TYPE":"PAYLOAD","PERIAPSIS":"546.381","CENTER_NAME":"EARTH","NORAD_CAT_ID":"48036","SEMIMAJOR_AXIS":"6925.351","BSTAR":"-0.00003965400000","RA_OF_ASC_NODE":"57.1833","REF_FRAME":"TEME","MEAN_ELEMENT_THEORY":"SGP4","ECCENTRICITY":"0.00012060","REV_AT_EPOCH":"9045","RCS_SIZE":"LARGE","OBJECT_ID":"2021-024BM","PERIOD":"95.592","FILE":"3644033","CLASSIFICATION_TYPE":"U","ARG_OF_PERICENTER":"83.5725","OBJECT_NAME":"STARLINK-2295","EPHEMERIS_TYPE":"0","SITE":"AFETR","APOAPSIS":"548.052","MEAN_MOTION":"15.06399104","DECAY_DATE":null,"COUNTRY_CODE":"US","TLE_LINE2":"2 48036  53.0553  57.1833 0001206  83.5725 276.5401 15.06399104 90451","GP_ID":"216861442","INCLINATION":"53.0553","EPOCH":"2022-11-03T17:43:01.518528","LAUNCH_DATE":"2021-03-24","MEAN_MOTION_DDOT":"0.0000000000000","TIME_SYSTEM":"UTC"},{"MEAN_ANOMALY":"269.0590","ELEMENT_SET_NO":"999","TLE_LINE1":"1 48092U 21027A   22307.74329897  .00001843  00000-0  14258-3 0  9997","MEAN_MOTION_DOT":"0.00001843","OBJECT_TYPE":"PAYLOAD","PERIAPSIS":"546.351","CENTER_NAME":"EARTH","SEMIMAJOR_AXIS":"6925.334","NORAD_CAT_ID":"48092","RA_OF_ASC_NODE":"182.4345","BSTAR":"0.00014258000000","REF_FRAME":"TEME","ECCENTRICITY":"0.00012240","MEAN_ELEMENT_THEORY":"SGP4","RCS_SIZE":"LARGE","REV_AT_EPOCH":"8888","PERIOD":"95.592","OBJECT_ID":"2021-027A","FILE":"3643929","CLASSIFICATION_TYPE":"U","ARG_OF_PERICENTER":"91.0539","EPHEMERIS_TYPE":"0","OBJECT_NAME":"STARLINK-2048","APOAPSIS":"548.047","SITE":"AFETR","MEAN_MOTION":"15.06404723","DECAY_DATE":null,"TLE_LINE2":"2 48092  53.0545 182.4345 0001224  91.0539 269.0590 15.06404723 88885","COUNTRY_CODE":"US","GP_ID":"216837610","INCLINATION":"53.0545","EPOCH":"2022-11-03T17:50:21.031008","LAUNCH_DATE":"2021-04-07","MEAN_MOTION_DDOT":"0.0000000000000","TIME_SYSTEM":"UTC"},{"MEAN_MOTION":"15.06426945","TLE_LINE2":"2 48093  53.0542 246.9322 0002002  48.1475 311.9685 15.06426945 87994","COUNTRY_CODE":"US","DECAY_DATE":null,"SITE":"AFETR","APOAPSIS":"548.517","OBJECT_NAME":"STARLINK-2404","EPHEMERIS_TYPE":"0","ARG_OF_PERICENTER":"48.1475","FILE":"3643883","PERIOD":"95.590","OBJECT_ID":"2021-027B","CLASSIFICATION_TYPE":"U","MEAN_MOTION_DDOT":"0.0000000000000","LAUNCH_DATE":"2021-04-07","TIME_SYSTEM":"UTC","EPOCH":"2022-11-03T20:07:40.178208","INCLINATION":"53.0542","GP_ID":"216836184","CENTER_NAME":"EARTH","OBJECT_TYPE":"PAYLOAD","TLE_LINE1":"1 48093U 21027B   22307.83865947  .00011971  00000-0  82062-3 0  9990","MEAN_MOTION_DOT":"0.00011971","PERIAPSIS":"545.745","MEAN_ANOMALY":"311.9685","ELEMENT_SET_NO":"999","ECCENTRICITY":"0.00020020","MEAN_ELEMENT_THEORY":"SGP4","RCS_SIZE":"LARGE","REV_AT_EPOCH":"8799","REF_FRAME":"TEME","SEMIMAJOR_AXIS":"6925.266","NORAD_CAT_ID":"48093","RA_OF_ASC_NODE":"246.9322","BSTAR":"0.00082062000000"},{"MEAN_ANOMALY":"307.1412","ELEMENT_SET_NO":"999","CENTER_NAME":"EARTH","OBJECT_TYPE":"PAYLOAD","TLE_LINE1":"1 48094U 21027C   22307.85614320  .00003532  00000-0  25588-3 0  9994","MEAN_MOTION_DOT":"0.00003532","PERIAPSIS":"545.903","SEMIMAJOR_AXIS":"6925.332","NORAD_CAT_ID":"48094","BSTAR":"0.00025588000000","RA_OF_ASC_NODE":"256.6530","ECCENTRICITY":"0.00018690","MEAN_ELEMENT_THEORY":"SGP4","REV_AT_EPOCH":"8826","RCS_SIZE":"LARGE","REF_FRAME":"TEME","FILE":"3644033","PERIOD":"95.592","OBJECT_ID":"2021-027C","CLASSIFICATION_TYPE":"U","MEAN_MOTION":"15.06405364","COUNTRY_CODE":"US","TLE_LINE2":"2 48094  53.0549 256.6530 0001869  52.9748 307.1412 15.06405364 88265","DECAY_DATE":null,"APOAPSIS":"548.491","SITE":"AFETR","EPHEMERIS_TYPE":"0","OBJECT_NAME":"STARLINK-2412","ARG_OF_PERICENTER":"52.9748","INCLINATION":"53.0549","GP_ID":"216860948","LAUNCH_DATE":"2021-04-07","MEAN_MOTION_DDOT":"0.0000000000000","TIME_SYSTEM":"UTC","EPOCH":"2022-11-03T20:32:50.772480"},{"TIME_SYSTEM":"UTC","MEAN_MOTION_DDOT":"0.0000000000000","LAUNCH_DATE":"2021-04-07","EPOCH":"2022-11-03T06:23:37.138848","INCLINATION":"53.0549","GP_ID":"216830370","DECAY_DATE":null,"TLE_LINE2":"2 48095  53.0549 259.2853 0002007  46.0849 314.0306 15.06397783 88189","COUNTRY_CODE":"US","MEAN_MOTION":"15.06397783","EPHEMERIS_TYPE":"0","ARG_OF_PERICENTER":"46.0849","OBJECT_NAME":"STARLINK-2414","SITE":"AFETR","APOAPSIS":"548.610","CLASSIFICATION_TYPE":"U","PERIOD":"95.592","OBJECT_ID":"2021-027D","FILE":"3643813","RCS_SIZE":"LARGE","REV_AT_EPOCH":"8818","MEAN_ELEMENT_THEORY":"SGP4","ECCENTRICITY":"0.00020070","REF_FRAME":"TEME","BSTAR":"0.00011387000000","RA_OF_ASC_NODE":"259.2853","SEMIMAJOR_AXIS":"6925.355","NORAD_CAT_ID":"48095","CENTER_NAME":"EARTH","PERIAPSIS":"545.830","TLE_LINE1":"1 48095U 21027D   22307.26640207  .00001415  00000-0  11387-3 0  9993","MEAN_MOTION_DOT":"0.00001415","OBJECT_TYPE":"PAYLOAD","ELEMENT_SET_NO":"999","MEAN_ANOMALY":"314.0306"}];
